STARLINK-30927          
1 58382U 23178J   24030.15625020  .00012052  00000+0  58712-3 0  9992
2 58382  53.0533 333.2896 0001786 103.9688 256.1505 15.18753410 12088
STARLINK-30921          
1 58383U 23178K   24030.12179055  .00011861  00000+0  57820-3 0  9998
2 58383  53.0557 333.7770 0001879 114.1873 245.9318 15.18744287 12073
STARLINK-30825          
1 58384U 23178L   24030.12085558  .00001132  00000+0  69030-4 0  9990
2 58384  53.0566 333.7808 0001852 104.7796 255.3404 15.18707098 12098
STARLINK-30930          
1 58385U 23178M   24029.26122193  .00006357  00000+0  31730-3 0  9990
2 58385  53.0549 337.6599 0001828 103.9406 256.1791 15.18729718 11845
STARLINK-30929          
1 58386U 23178N   24030.15128360  .00007006  00000+0  34811-3 0  9998
2 58386  53.0527 331.0753 0001616 105.3951 254.7222 15.18729734 12110
STARLINK-30898          
1 58387U 23178P   24030.15662954  .00013721  00000+0  66658-3 0  9996
2 58387  53.0522 333.2849 0001155  94.7837 265.3289 15.18731827 12115
STARLINK-30913          
1 58388U 23178Q   24030.10657945  .00002435  00000+0  13089-3 0  9996
2 58388  53.0552 333.6939 0001802  88.4465 271.6735 15.18741571 12101
STARLINK-30938          
1 58389U 23178R   24030.11071534  .00005677  00000+0  28497-3 0  9992
2 58389  53.0548 333.7124 0001703 103.5235 256.5950 15.18731547 12101
STARLINK-30868          
1 58390U 23178S   24030.17143883  .00007343  00000+0  36417-3 0  9990
2 58390  53.0538 333.3838 0001439 111.1990 248.9158 15.18723056 12100
STARLINK-30916          
1 58391U 23178T   24029.83829196  .00011587  00000+0  56546-3 0  9990
2 58391  53.0540 334.8692 0002235  76.5398 283.5846 15.18731150 12067
STARLINK-30937          
1 58392U 23178U   24030.09550271  .00008342  00000+0  41134-3 0  9998
2 58392  53.0535 333.6249 0002099  70.6967 289.4254 15.18747598 12108
STARLINK-30939          
1 58393U 23178V   24030.11578006  .00008751  00000+0  43073-3 0  9996
2 58393  53.0579 333.7561 0002316  75.3441 284.7810 15.18747321 11936
STARLINK-30887          
1 58394U 23178W   24030.12114284  .00009074  00000+0  44633-3 0  9994
2 58394  53.0568 333.0606 0001207 135.9914 224.1177 15.18725917 12093
STARLINK-30934          
1 58395U 23178X   24030.07503929  .00036061  00000+0  16107-2 0  9997
2 58395  53.0549 333.5021 0004687 130.8819 229.2583 15.21029608 12031
STARLINK-30964          
1 58402U 23180A   24029.92940734  .00029523  00000+0  15161-2 0  9994
2 58402  42.9994 281.1911 0001576 229.2856 130.7854 15.15976547 11767
STARLINK-30844          
1 58403U 23180B   24030.10671375  .00038475  00000+0  19679-2 0  9993
2 58403  42.9996 280.8051 0001692 258.2681 101.7977 15.16009568 11695
STARLINK-30876          
1 58404U 23180C   24030.10444097  .00038314  00000+0  19608-2 0  9997
2 58404  42.9999 280.7875 0001751 264.0083  96.0565 15.15991406 11799
STARLINK-30952          
1 58405U 23180D   24030.10216802 -.00004701  00000+0 -22892-3 0  9994
2 58405  42.9993 280.7696 0001205 284.8058  75.2656 15.15957390 11694
STARLINK-30925          
1 58406U 23180E   24030.03399381  .00013723  00000+0  71241-3 0  9995
2 58406  42.9994 281.1163 0002069 251.4560 108.6062 15.15986239 11682
STARLINK-30954          
1 58407U 23180F   24029.86124075  .00024417  00000+0  12568-2 0  9999
2 58407  42.9991 281.5405 0001458 253.2274 106.8413 15.15977015 11756
STARLINK-30906          
1 58408U 23180G   24028.71662407  .00000114  00000+0  23501-4 0  9998
2 58408  42.9982 285.7273 0001279 263.6395  96.4302 15.02538574 11497
STARLINK-30940          
1 58409U 23180H   24029.86035523  .00044255  00000+0  22478-2 0  9993
2 58409  42.9986 278.9681 0002747 253.1679 106.8867 15.16197733 11786
STARLINK-30933          
1 58410U 23180J   24030.02944458  .00008447  00000+0  44356-3 0  9994
2 58410  42.9995 281.0829 0001323 260.7163  99.3534 15.15972574 11788
STARLINK-30919          
1 58411U 23180K   24028.58862631 -.00034162  00000+0 -24055-2 0  9993
2 58411  42.9986 284.8720 0001351 274.6596  85.4092 15.04366948 11522
STARLINK-30924          
1 58412U 23180L   24029.89070172  .00027940  00000+0  14358-2 0  9999
2 58412  42.9989 280.8949 0002113 260.3349  99.7260 15.15974578 11767
STARLINK-30931          
1 58413U 23180M   24029.86226843 -.00002154  00000+0 -64911-4 0  9999
2 58413  43.0000 276.3581 0007268 243.4472 116.5635 15.29309762 11813
STARLINK-30922          
1 58414U 23180N   24030.08393751 -.00001008  00000+0 -39747-4 0  9995
2 58414  42.9994 280.6307 0001623 263.5517  96.5146 15.15944007 11793
STARLINK-30949          
1 58415U 23180P   24029.91119113  .00014440  00000+0  74914-3 0  9990
2 58415  43.0000 281.0379 0001481 266.5107  93.5571 15.15977684 11761
STARLINK-30967          
1 58416U 23180Q   24029.85215205  .00045478  00000+0  23240-2 0  9993
2 58416  43.0001 281.4698 0001495 253.3007 106.7676 15.15975155 11752
STARLINK-30955          
1 58417U 23180R   24029.86807006  .00016559  00000+0  85720-3 0  9991
2 58417  42.9987 281.5778 0001527 260.7407  99.3268 15.15971565 11751
STARLINK-30895          
1 58418U 23180S   24029.87945223  .00008327  00000+0  43763-3 0  9992
2 58418  42.9987 281.6758 0001559 251.0296 109.0382 15.15956866 11646
STARLINK-30917          
1 58419U 23180T   24029.86234890  .00007438  00000+0  53651-3 0  9992
2 58419  42.9988 278.9193 0001251 254.1620 105.9085 15.04499896 11787
STARLINK-30899          
1 58420U 23180U   24029.87490644  .00011383  00000+0  59346-3 0  9997
2 58420  42.9991 281.6435 0001451 262.1461  97.9221 15.15967283 11646
STARLINK-30902          
1 58421U 23180V   24030.05434929  .00015903  00000+0  82351-3 0  9998
2 58421  42.9993 280.4069 0001449 258.4543 101.6142 15.15984210 11694
STARLINK-30912          
1 58422U 23180W   24029.73856878  .00012228  00000+0  63646-3 0  9996
2 58422  42.9995 282.3375 0001399 249.7780 110.2916 15.15972598 11734
STARLINK-30900          
1 58423U 23180X   24029.88158947  .00031869  00000+0  16346-2 0  9991
2 58423  42.9987 280.8016 0001277 260.2955  99.7748 15.15987675 11655
STARLINK-30908          
1 58424U 23180Y   24030.25001157  .00014743  00000+0  11046-2 0  9999
2 58424  42.9984 275.7875 0001939 270.2480 103.5248 15.02520239 11854
STARLINK-30869          
1 58437U 23183A   24030.07966979  .00010329  00000+0  77821-3 0  9998
2 58437  42.9976 265.2891 0001371 261.4486  98.6201 15.02553562 10968
STARLINK-30969          
1 58438U 23183B   24029.88356850  .00003213  00000+0  25275-3 0  9997
2 58438  42.9977 266.3967 0001350 258.8680 101.2011 15.02543110 10912
STARLINK-30951          
1 58439U 23183C   24030.14281728 -.00000303  00000+0 -73737-5 0  9997
2 58439  42.9980 264.9029 0001411 268.7716  91.2964 15.02534849 10978
STARLINK-30950          
1 58440U 23183D   24029.91668981  .00159282  00000+0  11228-2 0  9995
2 58440  42.9966 249.8932 0009139 261.3660 186.4939 15.72776518 11126
STARLINK-30942          
1 58441U 23183E   24030.12616429  .00009439  00000+0  71267-3 0  9999
2 58441  42.9980 264.7803 0001234 258.5333 101.5371 15.02547689 10977
STARLINK-30959          
1 58442U 23183F   24030.25001157 -.00003113  00000+0 -21551-3 0  9996
2 58442  42.9987 264.0213 0001538 279.7685  66.9860 15.02531847 10993
STARLINK-30971          
1 58443U 23183G   24029.99714558 -.00139343  00000+0 -10272-1 0  9993
2 58443  42.9988 265.5214 0001640 301.9449  58.1234 15.03381134 10959
STARLINK-30963          
1 58444U 23183H   24030.12642231 -.00000902  00000+0 -48823-4 0  9993
2 58444  42.9977 264.7706 0001403 263.5931  96.4752 15.04485332 10979
STARLINK-30961          
1 58445U 23183J   24029.85074620  .00004010  00000+0  29614-3 0  9991
2 58445  42.9974 266.1458 0002804 300.3465  59.7101 15.04494305 10919
STARLINK-30975          
1 58446U 23183K   24029.82818656  .00001285  00000+0  11020-3 0  9997
2 58446  42.9985 266.8182 0001189 267.1881  92.8825 15.02539388 10921
STARLINK-30976          
1 58447U 23183L   24030.11363963  .00013704  00000+0  97512-3 0  9997
2 58447  42.9987 264.7096 0001505 269.2569  90.8102 15.04509689 10977
STARLINK-30926          
1 58448U 23183M   24029.90220483  .00016618  00000+0  11793-2 0  9995
2 58448  42.9978 265.6364 0001303 248.6642 111.4062 15.04497109 10928
STARLINK-30943          
1 58449U 23183N   24030.25001157 -.00902800  00000+0 -21083-1 0  9992
2 58449  42.9996 245.7156 0001824 260.0538  52.3667 15.43925685 11199
STARLINK-30946          
1 58450U 23183P   24029.91668981  .00003650  00000+0  28521-3 0  9998
2 58450  42.9986 266.2604 0001438 275.4390 245.8872 15.02524596  5835
STARLINK-30944          
1 58451U 23183Q   24030.25001157  .00000698  00000+0  66787-4 0  9990
2 58451  42.9993 263.8920 0002319 256.5172 144.2563 15.02523396 10860
STARLINK-30928          
1 58452U 23183R   24029.77380157  .00014967  00000+0  11201-2 0  9999
2 58452  42.9978 266.4355 0002169 266.7346  93.3248 15.02553080 10906
STARLINK-30957          
1 58453U 23183S   24029.90094577  .00019574  00000+0  13856-2 0  9990
2 58453  42.9979 266.5208 0001460 264.4197  95.6479 15.04505354 10913
STARLINK-30966          
1 58454U 23183T   24029.89381975  .00004198  00000+0  30936-3 0  9995
2 58454  42.9980 266.4676 0001399 265.1170  94.9513 15.04495169 10917
STARLINK-30935          
1 58455U 23183U   24030.00319994  .00003643  00000+0  28454-3 0  9999
2 58455  42.9979 265.5660 0001862 268.9251  91.1378 15.02548237 10950
STARLINK-30960          
1 58456U 23183V   24029.88068555  .00001761  00000+0  13831-3 0  9990
2 58456  42.9983 266.3674 0001518 263.2270  96.8400 15.04484660 10912
STARLINK-30958          
1 58457U 23183W   24030.25001157  .00018938  00000+0  14152-2 0  9999
2 58457  42.9995 264.0226 0000867 317.1004  23.6422 15.02482623 10876
STARLINK-30962          
1 58458U 23183X   24029.84377321  .00014115  00000+0  10042-2 0  9999
2 58458  42.9982 266.0948 0001435 267.6305  92.4374 15.04498857 10914
